{"type": "FeatureCollection", "features": [{"type": "Feature", "properties": {"norad_id": 24876, "name": "GPS BIIR-2  (PRN 13)", "group": "gps-ops", "lat": 33.727689111336026, "lon": 132.72938804905306, "alt_km": 19929.78816499129, "timestamp": "2025-12-12T18:57:44.388601+00:00", "meta": {"OBJECT_NAME": "GPS BIIR-2  (PRN 13)", "OBJECT_ID": "1997-035A", "EPOCH": "2025-12-10T17:43:14.126880", "MEAN_MOTION": 2.00563589, "ECCENTRICITY": 0.0096757, "INCLINATION": 55.8943, "RA_OF_ASC_NODE": 105.9471, "ARG_OF_PERICENTER": 57.0036, "MEAN_ANOMALY": 303.9018, "EPHEMERIS_TYPE": 0, "CLASSIFICATION_TYPE": "U", "NORAD_CAT_ID": 24876, "ELEMENT_SET_NO": 999, "REV_AT_EPOCH": 20817, "BSTAR": 0, "MEAN_MOTION_DOT": 2.2e-07, "MEAN_MOTION_DDOT": 0}, "tle": {"line1": "1 24876U 97035A   25344.73835795  .00000022  00000+0  00000+0 0  9998", "line2": "2 24876  55.8943 105.9471 0096757  57.0036 303.9018  2.00563589208175"}}, "geometry": {"type": "Point", "coordinates": [132.72938804905306, 33.727689111336026]}}, {"type": "Feature", "properties": {"norad_id": 26360, "name": "GPS BIIR-4  (PRN 20)", "group": "gps-ops", "lat": 36.21277852980688, "lon": 176.0614331154097, "alt_km": 20209.078273713836, "timestamp": "2025-12-12T18:57:44.388628+00:00", "meta": {"OBJECT_NAME": "GPS BIIR-4  (PRN 20)", "OBJECT_ID": "2000-025A", "EPOCH": "2025-12-11T15:38:07.687104", "MEAN_MOTION": 2.0056778, "ECCENTRICITY": 0.00388662, "INCLINATION": 55.0445, "RA_OF_ASC_NODE": 26.8818, "ARG_OF_PERICENTER": 241.8871, "MEAN_ANOMALY": 150.2644, "EPHEMERIS_TYPE": 0, "CLASSIFICATION_TYPE": "U", "NORAD_CAT_ID": 26360, "ELEMENT_SET_NO": 999, "REV_AT_EPOCH": 18751, "BSTAR": 0, "MEAN_MOTION_DOT": -1e-06, "MEAN_MOTION_DDOT": 0}, "tle": {"line1": "1 26360U 00025A   25345.65147786 -.00000100  00000+0  00000+0 0  9997", "line2": "2 26360  55.0445  26.8818 0038866 241.8871 150.2644  2.00567780187516"}}, "geometry": {"type": "Point", "coordinates": [176.0614331154097, 36.21277852980688]}}, {"type": "Feature", "properties": {"norad_id": 26407, "name": "GPS BIIR-5  (PRN 22)", "group": "gps-ops", "lat": -20.530183799269142, "lon": -152.68884565128633, "alt_km": 19902.26669753787, "timestamp": "2025-12-12T18:57:44.388644+00:00", "meta": {"OBJECT_NAME": "GPS BIIR-5  (PRN 22)", "OBJECT_ID": "2000-040A", "EPOCH": "2025-12-11T13:24:36.235008", "MEAN_MOTION": 2.00567937, "ECCENTRICITY": 0.01260768, "INCLINATION": 54.891, "RA_OF_ASC_NODE": 222.6159, "ARG_OF_PERICENTER": 301.789, "MEAN_ANOMALY": 223.0098, "EPHEMERIS_TYPE": 0, "CLASSIFICATION_TYPE": "U", "NORAD_CAT_ID": 26407, "ELEMENT_SET_NO": 999, "REV_AT_EPOCH": 18618, "BSTAR": 0, "MEAN_MOTION_DOT": 3e-08, "MEAN_MOTION_DDOT": 0}, "tle": {"line1": "1 26407U 00040A   25345.55875272  .00000003  00000+0  00000+0 0  9994", "line2": "2 26407  54.8910 222.6159 0126076 301.7890 223.0098  2.00567937186182"}}, "geometry": {"type": "Point", "coordinates": [-152.68884565128633, -20.530183799269142]}}, {"type": "Feature", "properties": {"norad_id": 27663, "name": "GPS BIIR-8  (PRN 16)", "group": "gps-ops", "lat": 49.72927290001402, "lon": -13.588092747942927, "alt_km": 19972.00718753182, "timestamp": "2025-12-12T18:57:44.388659+00:00", "meta": {"OBJECT_NAME": "GPS BIIR-8  (PRN 16)", "OBJECT_ID": "2003-005A", "EPOCH": "2025-12-11T15:45:05.050944", "MEAN_MOTION": 2.00570963, "ECCENTRICITY": 0.01474213, "INCLINATION": 54.9236, "RA_OF_ASC_NODE": 222.4214, "ARG_OF_PERICENTER": 51.7853, "MEAN_ANOMALY": 319.3276, "EPHEMERIS_TYPE": 0, "CLASSIFICATION_TYPE": "U", "NORAD_CAT_ID": 27663, "ELEMENT_SET_NO": 999, "REV_AT_EPOCH": 16755, "BSTAR": 0, "MEAN_MOTION_DOT": 4e-08, "MEAN_MOTION_DDOT": 0}, "tle": {"line1": "1 27663U 03005A   25345.65630846  .00000004  00000+0  00000+0 0  9991", "line2": "2 27663  54.9236 222.4214 0147421  51.7853 319.3276  2.00570963167557"}}, "geometry": {"type": "Point", "coordinates": [-13.588092747942927, 49.72927290001402]}}, {"type": "Feature", "properties": {"norad_id": 28190, "name": "GPS BIIR-11 (PRN 19)", "group": "gps-ops", "lat": -54.99856495707293, "lon": -167.20646647638122, "alt_km": 20246.026855172826, "timestamp": "2025-12-12T18:57:44.388671+00:00", "meta": {"OBJECT_NAME": "GPS BIIR-11 (PRN 19)", "OBJECT_ID": "2004-009A", "EPOCH": "2025-12-11T22:20:18.324960", "MEAN_MOTION": 2.00560799, "ECCENTRICITY": 0.0108335, "INCLINATION": 54.9863, "RA_OF_ASC_NODE": 283.2515, "ARG_OF_PERICENTER": 167.6362, "MEAN_ANOMALY": 200.4215, "EPHEMERIS_TYPE": 0, "CLASSIFICATION_TYPE": "U", "NORAD_CAT_ID": 28190, "ELEMENT_SET_NO": 999, "REV_AT_EPOCH": 15919, "BSTAR": 0, "MEAN_MOTION_DOT": -7.6e-07, "MEAN_MOTION_DDOT": 0}, "tle": {"line1": "1 28190U 04009A   25345.93076765 -.00000076  00000+0  00000+0 0  9997", "line2": "2 28190  54.9863 283.2515 0108335 167.6362 200.4215  2.00560799159191"}}, "geometry": {"type": "Point", "coordinates": [-167.20646647638122, -54.99856495707293]}}, {"type": "Feature", "properties": {"norad_id": 28474, "name": "GPS BIIR-13 (PRN 02)", "group": "gps-ops", "lat": -24.79564155568627, "lon": -46.31225813653801, "alt_km": 19758.057085370237, "timestamp": "2025-12-12T18:57:44.388684+00:00", "meta": {"OBJECT_NAME": "GPS BIIR-13 (PRN 02)", "OBJECT_ID": "2004-045A", "EPOCH": "2025-12-11T20:09:21.883104", "MEAN_MOTION": 2.00569463, "ECCENTRICITY": 0.0170746, "INCLINATION": 55.2411, "RA_OF_ASC_NODE": 332.4419, "ARG_OF_PERICENTER": 309.2085, "MEAN_ANOMALY": 53.2722, "EPHEMERIS_TYPE": 0, "CLASSIFICATION_TYPE": "U", "NORAD_CAT_ID": 28474, "ELEMENT_SET_NO": 999, "REV_AT_EPOCH": 15467, "BSTAR": 0, "MEAN_MOTION_DOT": -8.7e-07, "MEAN_MOTION_DDOT": 0}, "tle": {"line1": "1 28474U 04045A   25345.83983661 -.00000087  00000+0  00000+0 0  9995", "line2": "2 28474  55.2411 332.4419 0170746 309.2085  53.2722  2.00569463154672"}}, "geometry": {"type": "Point", "coordinates": [-46.31225813653801, -24.79564155568627]}}, {"type": "Feature", "properties": {"norad_id": 28874, "name": "GPS BIIRM-1 (PRN 17)", "group": "gps-ops", "lat": -51.46533618858174, "lon": -140.67776894470802, "alt_km": 19838.57548323462, "timestamp": "2025-12-12T18:57:44.388696+00:00", "meta": {"OBJECT_NAME": "GPS BIIRM-1 (PRN 17)", "OBJECT_ID": "2005-038A", "EPOCH": "2025-12-10T14:00:21.521088", "MEAN_MOTION": 2.00578486, "ECCENTRICITY": 0.0131701, "INCLINATION": 55.0338, "RA_OF_ASC_NODE": 280.7877, "ARG_OF_PERICENTER": 293.4518, "MEAN_ANOMALY": 200.7371, "EPHEMERIS_TYPE": 0, "CLASSIFICATION_TYPE": "U", "NORAD_CAT_ID": 28874, "ELEMENT_SET_NO": 999, "REV_AT_EPOCH": 14805, "BSTAR": 0, "MEAN_MOTION_DOT": -6.4e-07, "MEAN_MOTION_DDOT": 0}, "tle": {"line1": "1 28874U 05038A   25344.58358242 -.00000064  00000+0  00000+0 0  9999", "line2": "2 28874  55.0338 280.7877 0131701 293.4518 200.7371  2.00578486148057"}}, "geometry": {"type": "Point", "coordinates": [-140.67776894470802, -51.46533618858174]}}, {"type": "Feature", "properties": {"norad_id": 29486, "name": "GPS BIIRM-2 (PRN 31)", "group": "gps-ops", "lat": -9.352581894360268, "lon": -14.562711423776625, "alt_km": 20399.95320064347, "timestamp": "2025-12-12T18:57:44.388709+00:00", "meta": {"OBJECT_NAME": "GPS BIIRM-2 (PRN 31)", "OBJECT_ID": "2006-042A", "EPOCH": "2025-12-11T18:34:08.503392", "MEAN_MOTION": 2.00554182, "ECCENTRICITY": 0.0107356, "INCLINATION": 54.6941, "RA_OF_ASC_NODE": 158.779, "ARG_OF_PERICENTER": 51.9381, "MEAN_ANOMALY": 124.8587, "EPHEMERIS_TYPE": 0, "CLASSIFICATION_TYPE": "U", "NORAD_CAT_ID": 29486, "ELEMENT_SET_NO": 999, "REV_AT_EPOCH": 14063, "BSTAR": 0, "MEAN_MOTION_DOT": 9.1e-07, "MEAN_MOTION_DDOT": 0}, "tle": {"line1": "1 29486U 06042A   25345.77370953  .00000091  00000+0  00000+0 0  9999", "line2": "2 29486  54.6941 158.7790 0107356  51.9381 124.8587  2.00554182140632"}}, "geometry": {"type": "Point", "coordinates": [-14.562711423776625, -9.352581894360268]}}, {"type": "Feature", "properties": {"norad_id": 29601, "name": "GPS BIIRM-3 (PRN 12)", "group": "gps-ops", "lat": -49.67811628466921, "lon": 97.07682174425128, "alt_km": 20407.019232201335, "timestamp": "2025-12-12T18:57:44.388721+00:00", "meta": {"OBJECT_NAME": "GPS BIIRM-3 (PRN 12)", "OBJECT_ID": "2006-052A", "EPOCH": "2025-12-10T22:50:57.052608", "MEAN_MOTION": 2.00573438, "ECCENTRICITY": 0.00877231, "INCLINATION": 54.9709, "RA_OF_ASC_NODE": 221.4692, "ARG_OF_PERICENTER": 87.4136, "MEAN_ANOMALY": 273.6655, "EPHEMERIS_TYPE": 0, "CLASSIFICATION_TYPE": "U", "NORAD_CAT_ID": 29601, "ELEMENT_SET_NO": 999, "REV_AT_EPOCH": 13963, "BSTAR": 0, "MEAN_MOTION_DOT": 3e-08, "MEAN_MOTION_DDOT": 0}, "tle": {"line1": "1 29601U 06052A   25344.95204922  .00000003  00000+0  00000+0 0  9993", "line2": "2 29601  54.9709 221.4692 0087723  87.4136 273.6655  2.00573438139634"}}, "geometry": {"type": "Point", "coordinates": [97.07682174425128, -49.67811628466921]}}, {"type": "Feature", "properties": {"norad_id": 32260, "name": "GPS BIIRM-4 (PRN 15)", "group": "gps-ops", "lat": 21.305881397438885, "lon": 104.23263962481167, "alt_km": 19946.9082535908, "timestamp": "2025-12-12T18:57:44.388733+00:00", "meta": {"OBJECT_NAME": "GPS BIIRM-4 (PRN 15)", "OBJECT_ID": "2007-047A", "EPOCH": "2025-12-11T06:11:12.991200", "MEAN_MOTION": 2.00564547, "ECCENTRICITY": 0.0164204, "INCLINATION": 53.9543, "RA_OF_ASC_NODE": 87.8198, "ARG_OF_PERICENTER": 85.2289, "MEAN_ANOMALY": 276.6392, "EPHEMERIS_TYPE": 0, "CLASSIFICATION_TYPE": "U", "NORAD_CAT_ID": 32260, "ELEMENT_SET_NO": 999, "REV_AT_EPOCH": 13304, "BSTAR": 0, "MEAN_MOTION_DOT": -2.3e-07, "MEAN_MOTION_DDOT": 0}, "tle": {"line1": "1 32260U 07047A   25345.25778925 -.00000023  00000+0  00000+0 0  9999", "line2": "2 32260  53.9543  87.8198 0164204  85.2289 276.6392  2.00564547133045"}}, "geometry": {"type": "Point", "coordinates": [104.23263962481167, 21.305881397438885]}}]}